STARLINK-2571           
1 48401U 21038BA  25267.58195313  .00015235  00000+0  10388-2 0  9995
2 48401  53.0565   7.3130 0001704  86.7452 273.3732 15.06425515242268
STARLINK-2593           
1 48404U 21038BD  25268.26387294  .00007544  00000+0  52493-3 0  9993
2 48404  53.0564   4.2428 0001465  84.6661 275.4495 15.06390883242379
STARLINK-2570           
1 48405U 21038BE  25267.53036455 -.00001812  00000+0 -10278-3 0  9992
2 48405  53.0565   7.5358 0001549  72.3436 287.7723 15.06393350242266
STARLINK-2568           
1 48406U 21038BF  25268.25648327  .00015198  00000+0  10368-2 0  9999
2 48406  53.0556   4.2781 0001270  60.6480 299.4636 15.06407924242379
STARLINK-2595           
1 48407U 21038BG  25268.00002315  .00147006  00000+0  23930-2 0  9997
2 48407  53.0430 307.6064 0003866  25.2627  58.1999 15.51663714  5828
STARLINK-2592           
1 48408U 21038BH  25267.58563369  .00022498  00000+0  15232-2 0  9994
2 48408  53.0552   7.2885 0001513  94.0019 266.1143 15.06431091242268
STARLINK-2563           
1 48410U 21038BK  25268.14452204  .00004230  00000+0  30266-3 0  9994
2 48410  53.0540 319.7824 0001651  82.1390 277.9786 15.06402018242995
STARLINK-2505           
1 48411U 21038BL  25268.16157380  .00000179  00000+0  30889-4 0  9994
2 48411  53.0555 314.7047 0001323  92.9044 267.2096 15.06396790243069
STARLINK-2581           
1 48412U 21038BM  25267.51658439  .00013276  00000+0  90797-3 0  9999
2 48412  53.0542 318.0371 0001113  86.7470 273.3646 15.06419669242962
STARLINK-2461           
1 48428U 21040A   25268.25419136  .00003914  00000+0  28165-3 0  9998
2 48428  53.0535 209.2892 0001228  61.1865 298.9247 15.06382179241629
STARLINK-2700           
1 48431U 21040D   25268.07034697  .00043231  00000+0  29058-2 0  9994
2 48431  53.0531 175.1139 0001161 133.5368 226.5717 15.06369289242089
STARLINK-2680           
1 48432U 21040E   25268.11787372  .00000452  00000+0  49262-4 0  9994
2 48432  53.0555 170.2961 0001497  89.0096 271.1064 15.06388046242151
STARLINK-2699           
1 48433U 21040F   25268.13028862  .00026036  00000+0  17620-2 0  9996
2 48433  53.0528 175.1255 0000999 112.3779 247.7316 15.06365608242086
STARLINK-2692           
1 48434U 21040G   25268.16118819  .00027165  00000+0  18368-2 0  9996
2 48434  53.0524 180.2215 0001198  99.1356 260.9769 15.06374736242026
STARLINK-2633           
1 48435U 21040H   25268.16758864  .00022651  00000+0  15352-2 0  9992
2 48435  53.0531 189.6869 0001393  99.4557 260.6590 15.06385376241880
STARLINK-2639           
1 48436U 21040J   25268.22330355  .00027136  00000+0  18319-2 0  9990
2 48436  53.0527 204.4271 0001568  84.9091 275.2077 15.06435111241688
