[{"OBJECT_NAME":"STARLINK-2571","OBJECT_ID":"2021-038BA","EPOCH":"2025-09-24T13:58:00.750432","MEAN_MOTION":15.06425515,"ECCENTRICITY":0.00017048,"INCLINATION":53.0565,"RA_OF_ASC_NODE":7.313,"ARG_OF_PERICENTER":86.7452,"MEAN_ANOMALY":273.3732,"EPHEMERIS_TYPE":0,"CLASSIFICATION_TYPE":"U","NORAD_CAT_ID":48401,"ELEMENT_SET_NO":999,"REV_AT_EPOCH":24226,"BSTAR":0.001038769,"MEAN_MOTION_DOT":0.00015235,"MEAN_MOTION_DDOT":0},{"OBJECT_NAME":"STARLINK-2593","OBJECT_ID":"2021-038BD","EPOCH":"2025-09-25T06:19:58.622016","MEAN_MOTION":15.06390883,"ECCENTRICITY":0.00014657,"INCLINATION":53.0564,"RA_OF_ASC_NODE":4.2428,"ARG_OF_PERICENTER":84.6661,"MEAN_ANOMALY":275.4495,"EPHEMERIS_TYPE":0,"CLASSIFICATION_TYPE":"U","NORAD_CAT_ID":48404,"ELEMENT_SET_NO":999,"REV_AT_EPOCH":24237,"BSTAR":0.00052492911,"MEAN_MOTION_DOT":7.544e-5,"MEAN_MOTION_DDOT":0},{"OBJECT_NAME":"STARLINK-2570","OBJECT_ID":"2021-038BE","EPOCH":"2025-09-24T12:43:43.497120","MEAN_MOTION":15.0639335,"ECCENTRICITY":0.00015496,"INCLINATION":53.0565,"RA_OF_ASC_NODE":7.5358,"ARG_OF_PERICENTER":72.3436,"MEAN_ANOMALY":287.7723,"EPHEMERIS_TYPE":0,"CLASSIFICATION_TYPE":"U","NORAD_CAT_ID":48405,"ELEMENT_SET_NO":999,"REV_AT_EPOCH":24226,"BSTAR":-0.00010277663,"MEAN_MOTION_DOT":-1.812e-5,"MEAN_MOTION_DDOT":0},{"OBJECT_NAME":"STARLINK-2568","OBJECT_ID":"2021-038BF","EPOCH":"2025-09-25T06:09:20.154528","MEAN_MOTION":15.06407924,"ECCENTRICITY":0.00012704,"INCLINATION":53.0556,"RA_OF_ASC_NODE":4.2781,"ARG_OF_PERICENTER":60.648,"MEAN_ANOMALY":299.4636,"EPHEMERIS_TYPE":0,"CLASSIFICATION_TYPE":"U","NORAD_CAT_ID":48406,"ELEMENT_SET_NO":999,"REV_AT_EPOCH":24237,"BSTAR":0.0010367946,"MEAN_MOTION_DOT":0.00015198,"MEAN_MOTION_DDOT":0},{"OBJECT_NAME":"STARLINK-2595","OBJECT_ID":"2021-038BG","EPOCH":"2025-09-25T00:00:02.000160","MEAN_MOTION":15.51663714,"ECCENTRICITY":0.00038662,"INCLINATION":53.043,"RA_OF_ASC_NODE":307.6064,"ARG_OF_PERICENTER":25.2627,"MEAN_ANOMALY":58.1999,"EPHEMERIS_TYPE":0,"CLASSIFICATION_TYPE":"U","NORAD_CAT_ID":48407,"ELEMENT_SET_NO":999,"REV_AT_EPOCH":582,"BSTAR":0.0023929563,"MEAN_MOTION_DOT":0.00147006,"MEAN_MOTION_DDOT":0},{"OBJECT_NAME":"STARLINK-2592","OBJECT_ID":"2021-038BH","EPOCH":"2025-09-24T14:03:18.750816","MEAN_MOTION":15.06431091,"ECCENTRICITY":0.00015131,"INCLINATION":53.0552,"RA_OF_ASC_NODE":7.2885,"ARG_OF_PERICENTER":94.0019,"MEAN_ANOMALY":266.1143,"EPHEMERIS_TYPE":0,"CLASSIFICATION_TYPE":"U","NORAD_CAT_ID":48408,"ELEMENT_SET_NO":999,"REV_AT_EPOCH":24226,"BSTAR":0.001523189,"MEAN_MOTION_DOT":0.00022498,"MEAN_MOTION_DDOT":0},{"OBJECT_NAME":"STARLINK-2563","OBJECT_ID":"2021-038BK","EPOCH":"2025-09-25T03:28:06.704256","MEAN_MOTION":15.06402018,"ECCENTRICITY":0.00016517,"INCLINATION":53.054,"RA_OF_ASC_NODE":319.7824,"ARG_OF_PERICENTER":82.139,"MEAN_ANOMALY":277.9786,"EPHEMERIS_TYPE":0,"CLASSIFICATION_TYPE":"U","NORAD_CAT_ID":48410,"ELEMENT_SET_NO":999,"REV_AT_EPOCH":24299,"BSTAR":0.00030266025,"MEAN_MOTION_DOT":4.23e-5,"MEAN_MOTION_DDOT":0},{"OBJECT_NAME":"STARLINK-2505","OBJECT_ID":"2021-038BL","EPOCH":"2025-09-25T03:52:39.976320","MEAN_MOTION":15.0639679,"ECCENTRICITY":0.00013236,"INCLINATION":53.0555,"RA_OF_ASC_NODE":314.7047,"ARG_OF_PERICENTER":92.9044,"MEAN_ANOMALY":267.2096,"EPHEMERIS_TYPE":0,"CLASSIFICATION_TYPE":"U","NORAD_CAT_ID":48411,"ELEMENT_SET_NO":999,"REV_AT_EPOCH":24306,"BSTAR":3.0888557e-5,"MEAN_MOTION_DOT":1.79e-6,"MEAN_MOTION_DDOT":0},{"OBJECT_NAME":"STARLINK-2581","OBJECT_ID":"2021-038BM","EPOCH":"2025-09-24T12:23:52.891296","MEAN_MOTION":15.06419669,"ECCENTRICITY":0.00011138,"INCLINATION":53.0542,"RA_OF_ASC_NODE":318.0371,"ARG_OF_PERICENTER":86.747,"MEAN_ANOMALY":273.3646,"EPHEMERIS_TYPE":0,"CLASSIFICATION_TYPE":"U","NORAD_CAT_ID":48412,"ELEMENT_SET_NO":999,"REV_AT_EPOCH":24296,"BSTAR":0.00090797224,"MEAN_MOTION_DOT":0.00013276,"MEAN_MOTION_DDOT":0},{"OBJECT_NAME":"STARLINK-2461","OBJECT_ID":"2021-040A","EPOCH":"2025-09-25T06:06:02.133504","MEAN_MOTION":15.06382179,"ECCENTRICITY":0.00012283,"INCLINATION":53.0535,"RA_OF_ASC_NODE":209.2892,"ARG_OF_PERICENTER":61.1865,"MEAN_ANOMALY":298.9247,"EPHEMERIS_TYPE":0,"CLASSIFICATION_TYPE":"U","NORAD_CAT_ID":48428,"ELEMENT_SET_NO":999,"REV_AT_EPOCH":24162,"BSTAR":0.00028164603,"MEAN_MOTION_DOT":3.914e-5,"MEAN_MOTION_DDOT":0},{"OBJECT_NAME":"STARLINK-2700","OBJECT_ID":"2021-040D","EPOCH":"2025-09-25T01:41:17.978208","MEAN_MOTION":15.06369289,"ECCENTRICITY":0.00011615,"INCLINATION":53.0531,"RA_OF_ASC_NODE":175.1139,"ARG_OF_PERICENTER":133.5368,"MEAN_ANOMALY":226.5717,"EPHEMERIS_TYPE":0,"CLASSIFICATION_TYPE":"U","NORAD_CAT_ID":48431,"ELEMENT_SET_NO":999,"REV_AT_EPOCH":24208,"BSTAR":0.0029058026,"MEAN_MOTION_DOT":0.00043231,"MEAN_MOTION_DDOT":0},{"OBJECT_NAME":"STARLINK-2680","OBJECT_ID":"2021-040E","EPOCH":"2025-09-25T02:49:44.289408","MEAN_MOTION":15.06388046,"ECCENTRICITY":0.00014976,"INCLINATION":53.0555,"RA_OF_ASC_NODE":170.2961,"ARG_OF_PERICENTER":89.0096,"MEAN_ANOMALY":271.1064,"EPHEMERIS_TYPE":0,"CLASSIFICATION_TYPE":"U","NORAD_CAT_ID":48432,"ELEMENT_SET_NO":999,"REV_AT_EPOCH":24215,"BSTAR":4.9262155e-5,"MEAN_MOTION_DOT":4.52e-6,"MEAN_MOTION_DDOT":0},{"OBJECT_NAME":"STARLINK-2699","OBJECT_ID":"2021-040F","EPOCH":"2025-09-25T03:07:36.936768","MEAN_MOTION":15.06365608,"ECCENTRICITY":9.991e-5,"INCLINATION":53.0528,"RA_OF_ASC_NODE":175.1255,"ARG_OF_PERICENTER":112.3779,"MEAN_ANOMALY":247.7316,"EPHEMERIS_TYPE":0,"CLASSIFICATION_TYPE":"U","NORAD_CAT_ID":48433,"ELEMENT_SET_NO":999,"REV_AT_EPOCH":24208,"BSTAR":0.0017619877,"MEAN_MOTION_DOT":0.00026036,"MEAN_MOTION_DDOT":0},{"OBJECT_NAME":"STARLINK-2692","OBJECT_ID":"2021-040G","EPOCH":"2025-09-25T03:52:06.659616","MEAN_MOTION":15.06374736,"ECCENTRICITY":0.00011987,"INCLINATION":53.0524,"RA_OF_ASC_NODE":180.2215,"ARG_OF_PERICENTER":99.1356,"MEAN_ANOMALY":260.9769,"EPHEMERIS_TYPE":0,"CLASSIFICATION_TYPE":"U","NORAD_CAT_ID":48434,"ELEMENT_SET_NO":999,"REV_AT_EPOCH":24202,"BSTAR":0.0018368332,"MEAN_MOTION_DOT":0.00027165,"MEAN_MOTION_DDOT":0},{"OBJECT_NAME":"STARLINK-2633","OBJECT_ID":"2021-040H","EPOCH":"2025-09-25T04:01:19.658496","MEAN_MOTION":15.06385376,"ECCENTRICITY":0.00013932,"INCLINATION":53.0531,"RA_OF_ASC_NODE":189.6869,"ARG_OF_PERICENTER":99.4557,"MEAN_ANOMALY":260.659,"EPHEMERIS_TYPE":0,"CLASSIFICATION_TYPE":"U","NORAD_CAT_ID":48435,"ELEMENT_SET_NO":999,"REV_AT_EPOCH":24188,"BSTAR":0.0015352277,"MEAN_MOTION_DOT":0.00022651,"MEAN_MOTION_DDOT":0},{"OBJECT_NAME":"STARLINK-2639","OBJECT_ID":"2021-040J","EPOCH":"2025-09-25T05:21:33.426720","MEAN_MOTION":15.06435111,"ECCENTRICITY":0.00015688,"INCLINATION":53.0527,"RA_OF_ASC_NODE":204.4271,"ARG_OF_PERICENTER":84.9091,"MEAN_ANOMALY":275.2077,"EPHEMERIS_TYPE":0,"CLASSIFICATION_TYPE":"U","NORAD_CAT_ID":48436,"ELEMENT_SET_NO":999,"REV_AT_EPOCH":24168,"BSTAR":0.0018318761,"MEAN_MOTION_DOT":0.00027136,"MEAN_MOTION_DDOT":0}]
